[{"idp":"2360","idd":"18679","idt":"173","talla":"14 mm","peso":"1.60","nombre":"Huggies 14mm F1R09","imagen":"catalog\/IMG_20201214_142501a3f123a5f04d86740a09905febe03648.jpg","agotado":"26\/03\/2021 05:24:43 PM","idpvd":"39","codf":"ZS2EE0089ZS","cant":0,"nota":"","en_oc":true},{"idp":"7878","idd":"9999","idt":"2","talla":"45 cm","peso":"4.50","nombre":"KCD035","imagen":"catalog\/IMG_20200713_132929c1299088aaf2416ddc7aec685765ab740cd9a962b6f809466528bddeb223ae1d.jpg","agotado":"26\/03\/2021 05:13:13 PM","idpvd":"59","codf":"KCD035","cant":120,"nota":"","en_oc":true},{"idp":"7878","idd":"9999","idt":"14","talla":"50 cm","peso":"4.90","nombre":"KCD035","imagen":"catalog\/IMG_20200713_132929c1299088aaf2416ddc7aec685765ab740cd9a962b6f809466528bddeb223ae1d.jpg","agotado":"26\/03\/2021 05:13:13 PM","idpvd":"59","codf":"KCD035","cant":60,"nota":"","en_oc":true},{"idp":"7878","idd":"9999","idt":"16","talla":"60 cm","peso":"5.90","nombre":"KCD035","imagen":"catalog\/IMG_20200713_132929c1299088aaf2416ddc7aec685765ab740cd9a962b6f809466528bddeb223ae1d.jpg","agotado":"26\/03\/2021 05:13:13 PM","idpvd":"59","codf":"KCD035","cant":75,"nota":"","en_oc":true},{"idp":"16057","idd":"23531","idt":"92","talla":"unica ","peso":"3.00","nombre":"Zarcillos de Gota","imagen":"catalog\/IMG_20210326_145215a36e6b83ca755556c084e7df51a16b52.jpg","agotado":"26\/03\/2021 05:08:04 PM","idpvd":"64","codf":"","cant":0,"nota":"","en_oc":true},{"idp":"3393","idd":"4067","idt":"82","talla":"80 cm","peso":"10.70","nombre":"Camisero ","imagen":"catalog\/IMG_20190716_095217_compress1716fdc0713a830406dcb4db1bc5dcad8d.jpg","agotado":"26\/03\/2021 02:52:54 PM","idpvd":"2","codf":"","cant":0,"nota":"","en_oc":true},{"idp":"7823","idd":"9931","idt":"160","talla":"23+3 cm","peso":"4.10","nombre":"Tobillera de Corazones , Tr\u00e9bol , Llave , Estrella","imagen":"catalog\/IMG_20200710_1107511eaf0c8f050ba30eea97338380a36deb.jpg","agotado":"26\/03\/2021 02:49:47 PM","idpvd":"1","codf":"","cant":0,"nota":"","en_oc":true},{"idp":"16057","idd":"23528","idt":"92","talla":"unica ","peso":"3.00","nombre":"Zarcillos de Gota","imagen":"catalog\/IMG_20210326_1448354eccec16463d9ff796e54ec467264f0b.jpg","agotado":"26\/03\/2021 05:07:04 PM","idpvd":"64","codf":"","cant":0,"nota":"","en_oc":true},{"idp":"8615","idd":"11115","idt":"6","talla":"45 cm","peso":"8.80","nombre":"Rosario de la Milagrosa 3mm","imagen":"catalog\/IMG_20210205_145410fc6ef92fb2295ac88c00ca9d8c59046d.jpg","agotado":"26\/03\/2021 01:16:17 PM","idpvd":"2","codf":"0026HK0883","cant":0,"nota":"","en_oc":true},{"idp":"8615","idd":"11115","idt":"9","talla":"50 cm","peso":"9.00","nombre":"Rosario de la Milagrosa 3mm","imagen":"catalog\/IMG_20210205_145410fc6ef92fb2295ac88c00ca9d8c59046d.jpg","agotado":"26\/03\/2021 01:16:17 PM","idpvd":"2","codf":"0026HK0883","cant":0,"nota":"","en_oc":true},{"idp":"8615","idd":"11115","idt":"7","talla":"60 cm","peso":"9.40","nombre":"Rosario de la Milagrosa 3mm","imagen":"catalog\/IMG_20210205_145410fc6ef92fb2295ac88c00ca9d8c59046d.jpg","agotado":"26\/03\/2021 01:16:17 PM","idpvd":"2","codf":"0026HK0883","cant":0,"nota":"","en_oc":true},{"idp":"16057","idd":"23527","idt":"92","talla":"unica ","peso":"3.00","nombre":"Zarcillos de Gota","imagen":"catalog\/IMG_20210326_1447252d5eb82b6bb43fda8d3b2752092ac3e4.jpg","agotado":"26\/03\/2021 05:06:46 PM","idpvd":"64","codf":"","cant":0,"nota":"","en_oc":true},{"idp":"2360","idd":"18667","idt":"173","talla":"14 mm","peso":"1.60","nombre":"Huggies 14mm F1R09","imagen":"catalog\/IMG_20201214_1410506dd54f07092bf361655a8699ef8364d3.jpg","agotado":"09\/03\/2021 04:31:40 PM","idpvd":"39","codf":"ZS2EE0089ZS","cant":0,"nota":"","en_oc":true},{"idp":"3269","idd":"3913","idt":"175","talla":"16 mm","peso":"2.30","nombre":"Argollas con Bolitas 16mm","imagen":"catalog\/3268_39131ca1f81f7cf215c4d37359e3f3e099f6.jpg","agotado":"08\/03\/2021 11:23:53 AM","idpvd":"22","codf":"","cant":0,"nota":"","en_oc":true},{"idp":"2360","idd":"2843","idt":"173","talla":"14 mm","peso":"1.60","nombre":"Huggies 14mm F1R09","imagen":"catalog\/IMG_20201214_140410574f2da87c5a13c235635086453c6868.jpg","agotado":"09\/03\/2021 02:57:47 PM","idpvd":"39","codf":"ZS2EE0089ZS","cant":0,"nota":"","en_oc":true},{"idp":"7626","idd":"9702","idt":"25","talla":"6 us","peso":"2.30","nombre":"Anillo de Flores","imagen":"catalog\/IMG_20200707_094742b6b149858ab4516fd066348f326a2735.jpg","agotado":"26\/03\/2021 05:22:04 PM","idpvd":"39","codf":"JY-PMBIQ","cant":0,"nota":"","en_oc":true},{"idp":"7626","idd":"9702","idt":"5","talla":"7 us","peso":"2.30","nombre":"Anillo de Flores","imagen":"catalog\/IMG_20200707_094742b6b149858ab4516fd066348f326a2735.jpg","agotado":"26\/03\/2021 05:22:04 PM","idpvd":"39","codf":"JY-PMBIQ","cant":0,"nota":"","en_oc":true},{"idp":"7626","idd":"9702","idt":"26","talla":"8 us","peso":"2.30","nombre":"Anillo de Flores","imagen":"catalog\/IMG_20200707_094742b6b149858ab4516fd066348f326a2735.jpg","agotado":"26\/03\/2021 05:22:04 PM","idpvd":"39","codf":"JY-PMBIQ","cant":0,"nota":"","en_oc":true},{"idp":"7626","idd":"9702","idt":"43","talla":"9 us","peso":"2.30","nombre":"Anillo de Flores","imagen":"catalog\/IMG_20200707_094742b6b149858ab4516fd066348f326a2735.jpg","agotado":"26\/03\/2021 05:22:04 PM","idpvd":"39","codf":"JY-PMBIQ","cant":0,"nota":"","en_oc":true}]